NORAD_CAT_ID,OBJECT_NAME,OBJECT_TYPE,EPOCH,MEAN_MOTION,ECCENTRICITY,INCLINATION,RA_OF_ASC_NODE,ARG_OF_PERICENTER,MEAN_ANOMALY,BSTAR,MEAN_MOTION_DOT,MEAN_MOTION_DDOT,TLE_LINE0,TLE_LINE1,TLE_LINE2,SEMIMAJOR_AXIS,PERIOD,APOGEE,PERIGEE,DECAYED
55636.0,STARLINK-5218,PAYLOAD,2023-03-28 14:00:01,15.44519349,0.0003537,70.0021,41.8449,271.1673,221.3036,-0.027852,-0.01182017,0.0,0 STARLINK-5218,1 55636U 23021J   23087.58334491 -.01182017  00000-0 -27852-1 0  9997,2 55636  70.0021  41.8449 0003537 271.1673 221.3036 15.44519349  1308,6810.928,93.233,435.202,430.384,0.0
55636.0,STARLINK-5218,PAYLOAD,2023-03-28 22:00:00,15.43701618,0.0003351,70.0025,40.9438,265.6094,279.2123,-0.03017,-0.01239435,0.0,0 STARLINK-5218,1 55636U 23021J   23087.91667824 -.01239435  00000-0 -30170-1 0  9997,2 55636  70.0025  40.9438 0003351 265.6094 279.2123 15.43701618  1309,6813.333,93.282,437.481,432.915,0.0
55636.0,STARLINK-5218,PAYLOAD,2023-03-29 02:00:01,15.43244422,0.0003609,70.0024,40.4934,270.4181,120.2151,-0.029953,-0.01214161,0.0,0 STARLINK-5218,1 55636U 23021J   23088.08334491 -.01214161  00000-0 -29953-1 0  9993,2 55636  70.0024  40.4934 0003609 270.4181 120.2151 15.43244422  6699,6814.678,93.31,439.003,434.084,0.0
55636.0,STARLINK-5218,PAYLOAD,2023-03-29 14:00:01,15.41939015,0.0003406,70.0019,39.1439,269.7154,16.7628,-0.030348,-0.01180354,0.0,0 STARLINK-5218,1 55636U 23021J   23088.58334491 -.01180354  00000-0 -30348-1 0  9994,2 55636  70.0019  39.1439 0003406 269.7154  16.7628 15.41939015  1302,6818.524,93.389,442.711,438.067,0.0
55636.0,STARLINK-5218,PAYLOAD,2023-03-29 22:00:00,15.41125889,0.0003608,70.0023,38.2458,266.7184,69.0172,-0.032948,-0.01241074,0.0,0 STARLINK-5218,1 55636U 23021J   23088.91667824 -.01241074  00000-0 -32948-1 0  9995,2 55636  70.0023  38.2458 0003608 266.7184  69.0172 15.41125889  1303,6820.922,93.438,445.248,440.326,0.0
55636.0,STARLINK-5218,PAYLOAD,2023-03-30 08:00:01,15.4001595,0.0003449,70.002,37.1247,275.5445,210.3469,-0.032452,-0.01183547,0.0,0 STARLINK-5218,1 55636U 23021J   23089.33334491 -.01183547  00000-0 -32452-1 0  9993,2 55636  70.0020  37.1247 0003449 275.5445 210.3469 15.40015950  6889,6824.199,93.506,448.418,443.711,0.0
55636.0,STARLINK-5218,PAYLOAD,2023-03-30 22:00:00,15.38549693,0.0003426,70.0023,35.5583,267.8261,209.5524,-0.036052,-0.01246422,0.0,0 STARLINK-5218,1 55636U 23021J   23089.91667824 -.01246422  00000-0 -36052-1 0  9998,2 55636  70.0023  35.5583 0003426 267.8261 209.5524 15.38549693  6977,6828.534,93.595,452.739,448.06,0.0
55636.0,STARLINK-5218,PAYLOAD,2023-03-31 00:00:00,15.38320121,0.0003358,70.0023,35.3349,266.6266,312.1458,-0.035911,-0.01233513,0.0,0 STARLINK-5218,1 55636U 23021J   23090.00001157 -.01233513  00000-0 -35911-1 0  9991,2 55636  70.0023  35.3349 0003358 266.6266 312.1458 15.38320121  1303,6829.214,93.609,453.372,448.785,0.0
55636.0,STARLINK-5218,PAYLOAD,2023-03-31 18:00:00,15.36359932,0.0003458,70.002,33.3271,268.1202,140.2205,-0.035981,-0.01166004,0.0,0 STARLINK-5218,1 55636U 23021J   23090.75001157 -.01166004  00000-0 -35981-1 0  9990,2 55636  70.0020  33.3271 0003458 268.1202 140.2205 15.36359932  7104,6835.021,93.728,459.25,454.523,0.0
55636.0,STARLINK-5218,PAYLOAD,2023-04-01 06:00:00,15.35068451,0.0003391,70.0021,31.9919,272.7511,19.0734,-0.037389,-0.01162605,0.0,0 STARLINK-5218,1 55636U 23021J   23091.25001157 -.01162605  00000-0 -37389-1 0  9993,2 55636  70.0021  31.9919 0003391 272.7511  19.0734 15.35068451  7177,6838.854,93.807,463.038,458.4,0.0
55636.0,STARLINK-5218,PAYLOAD,2023-04-01 14:00:01,15.34194965,0.0003373,70.0023,31.103,267.2259,65.6439,-0.038227,-0.01156512,0.0,0 STARLINK-5218,1 55636U 23021J   23091.58334491 -.01156512  00000-0 -38227-1 0  9991,2 55636  70.0023  31.1030 0003373 267.2259  65.6439 15.34194965  1300,6841.45,93.86,465.622,461.007,0.0
55636.0,STARLINK-5218,PAYLOAD,2023-04-01 16:00:00,15.33966317,0.0003413,70.0023,30.8812,268.8431,164.1247,-0.037179,-0.01120001,0.0,0 STARLINK-5218,1 55636U 23021J   23091.66667824 -.01120001  00000-0 -37179-1 0  9998,2 55636  70.0023  30.8812 0003413 268.8431 164.1247 15.33966317  7246,6842.13,93.874,466.33,461.659,0.0
55636.0,STARLINK-5218,PAYLOAD,2023-04-01 22:00:00,15.33405055,0.0003494,70.0026,30.2157,269.2998,103.5505,-0.043126,-0.01279607,0.0,0 STARLINK-5218,1 55636U 23021J   23091.91667824 -.01279607  00000-0 -43126-1 0  9992,2 55636  70.0026  30.2157 0003494 269.2998 103.5505 15.33405055  1309,6843.799,93.909,468.055,463.273,0.0
55636.0,STARLINK-5218,PAYLOAD,2023-04-02 08:00:01,15.3231212,0.0003199,70.0022,29.1078,276.5116,234.8969,-0.043138,-0.0122275,0.0,0 STARLINK-5218,1 55636U 23021J   23092.33334491 -.01222750  00000-0 -43138-1 0  9990,2 55636  70.0022  29.1078 0003199 276.5116 234.8969 15.32312120  7340,6847.053,93.976,471.108,466.728,0.0
55636.0,STARLINK-5218,PAYLOAD,2023-04-02 14:00:01,15.31611657,0.0003289,70.0026,28.4439,270.0024,179.7895,-0.040823,-0.0113976,0.0,0 STARLINK-5218,1 55636U 23021J   23092.58334491 -.01139760  00000-0 -40823-1 0  9993,2 55636  70.0026  28.4439 0003289 270.0024 179.7895 15.31611657  1305,6849.14,94.019,473.258,468.753,0.0
55636.0,STARLINK-5218,PAYLOAD,2023-04-02 22:00:00,15.30823387,0.0003188,70.0029,27.5599,270.7304,215.9529,-0.046512,-0.01272979,0.0,0 STARLINK-5218,1 55636U 23021J   23092.91667824 -.01272979  00000-0 -46512-1 0  9990,2 55636  70.0029  27.5599 0003188 270.7304 215.9529 15.30823387  1302,6851.491,94.067,475.541,471.172,0.0
55636.0,STARLINK-5218,PAYLOAD,2023-04-03 14:00:01,15.29034973,0.0003235,70.0028,25.7949,266.8385,290.6046,-0.044053,-0.01135607,0.0,0 STARLINK-5218,1 55636U 23021J   23093.58334491 -.01135607  00000-0 -44053-1 0  9999,2 55636  70.0028  25.7949 0003235 266.8385 290.6046 15.29034973  7536,6856.833,94.177,480.916,476.48,0.0
55636.0,STARLINK-5218,PAYLOAD,2023-04-03 22:00:00,15.28237851,0.0003138,70.0033,24.9144,267.0217,324.2272,-0.049748,-0.01258183,0.0,0 STARLINK-5218,1 55636U 23021J   23093.91667824 -.01258183  00000-0 -49748-1 0  9996,2 55636  70.0033  24.9144 0003138 267.0217 324.2272 15.28237851  1302,6859.217,94.226,483.234,478.93,0.0
55636.0,STARLINK-5218,PAYLOAD,2023-04-04 08:00:01,15.27164186,0.0003365,70.003,23.8152,272.5089,89.632,-0.051084,-0.01250946,0.0,0 STARLINK-5218,1 55636U 23021J   23094.33335648 -.01250946  00000-0 -51084-1 0  9994,2 55636  70.0030  23.8152 0003365 272.5089  89.6320 15.27164186  7655,6862.431,94.292,486.606,481.987,0.0
55636.0,STARLINK-5218,PAYLOAD,2023-04-04 14:00:01,15.26455505,0.0003255,70.0032,23.1567,264.1864,31.6398,-0.047445,-0.01130669,0.0,0 STARLINK-5218,1 55636U 23021J   23094.58334491 -.01130669  00000-0 -47445-1 0  9991,2 55636  70.0032  23.1567 0003255 264.1864  31.6398 15.26455505  1301,6864.555,94.336,488.655,484.186,0.0
55636.0,STARLINK-5218,PAYLOAD,2023-04-04 22:00:00,15.25658835,0.0003335,70.0036,22.2795,266.5676,59.9743,-0.053611,-0.01253927,0.0,0 STARLINK-5218,1 55636U 23021J   23094.91667824 -.01253927  00000-0 -53611-1 0  9992,2 55636  70.0036  22.2795 0003335 266.5676  59.9743 15.25658835  1301,6866.945,94.385,491.1,486.52,0.0
55636.0,STARLINK-5218,PAYLOAD,2023-04-05 06:00:00,15.24777896,0.000325,70.0034,21.4035,273.4316,82.8164,-0.052675,-0.0120398,0.0,0 STARLINK-5218,1 55636U 23021J   23095.25001157 -.01203980  00000-0 -52675-1 0  9994,2 55636  70.0034  21.4035 0003250 273.4316  82.8164 15.24777896  7790,6869.589,94.44,493.687,489.222,0.0
55636.0,STARLINK-5218,PAYLOAD,2023-04-05 14:00:01,15.23873021,0.000326,70.0033,20.5287,267.55,117.3898,-0.050757,-0.01120029,0.0,0 STARLINK-5218,1 55636U 23021J   23095.58334491 -.01120029  00000-0 -50757-1 0  9991,2 55636  70.0033  20.5287 0003260 267.5500 117.3898 15.23873021  1303,6872.309,94.496,496.414,491.933,0.0
55636.0,STARLINK-5218,PAYLOAD,2023-04-05 22:00:00,15.2307796,0.0003294,70.0037,19.6552,268.801,143.7669,-0.057691,-0.01249283,0.0,0 STARLINK-5218,1 55636U 23021J   23095.91667824 -.01249283  00000-0 -57691-1 0  9995,2 55636  70.0037  19.6552 0003294 268.8010 143.7669 15.23077960  1305,6874.7,94.545,498.83,494.3,0.0
55636.0,STARLINK-5218,PAYLOAD,2023-04-06 00:00:00,15.22825114,0.0003153,70.0035,19.4369,270.1038,239.2285,-0.055204,-0.01191327,0.0,0 STARLINK-5218,1 55636U 23021J   23096.00001157 -.01191327  00000-0 -55204-1 0  9990,2 55636  70.0035  19.4369 0003153 270.1038 239.2285 15.22825114  7905,6875.461,94.561,499.494,495.158,0.0
55636.0,STARLINK-5218,PAYLOAD,2023-04-06 14:00:01,15.21295576,0.0003152,70.0034,17.9112,267.6201,197.2248,-0.054575,-0.01130548,0.0,0 STARLINK-5218,1 55636U 23021J   23096.58335648 -.01130548  00000-0 -54575-1 0  9996,2 55636  70.0034  17.9112 0003152 267.6201 197.2248 15.21295576  7998,6880.069,94.656,504.102,499.765,0.0
55636.0,STARLINK-5218,PAYLOAD,2023-04-06 22:00:00,15.20494906,0.0003126,70.0036,17.041,267.9921,221.3295,-0.061819,-0.0124104,0.0,0 STARLINK-5218,1 55636U 23021J   23096.91667824 -.01241040  00000-0 -61819-1 0  9996,2 55636  70.0036  17.0410 0003126 267.9921 221.3295 15.20494906  8040,6882.484,94.706,506.5,502.197,0.0
55636.0,STARLINK-5218,PAYLOAD,2023-04-07 14:00:01,15.18721226,0.0003051,70.0033,15.304,266.8705,268.4815,-0.058912,-0.01131859,0.0,0 STARLINK-5218,1 55636U 23021J   23097.58334491 -.01131859  00000-0 -58912-1 0  9997,2 55636  70.0033  15.3040 0003051 266.8705 268.4815 15.18721226  8148,6887.841,94.817,511.808,507.605,0.0
55636.0,STARLINK-5218,PAYLOAD,2023-04-07 22:00:00,15.17912508,0.0003079,70.0035,14.4372,269.6911,287.1143,-0.066078,-0.01231371,0.0,0 STARLINK-5218,1 55636U 23021J   23097.91667824 -.01231371  00000-0 -66078-1 0  9995,2 55636  70.0035  14.4372 0003079 269.6911 287.1143 15.17912508  8199,6890.288,94.867,514.274,510.031,0.0
55636.0,STARLINK-5218,PAYLOAD,2023-04-08 14:00:01,15.16146434,0.0003098,70.0031,12.707,265.0844,331.5684,-0.063519,-0.01133103,0.0,0 STARLINK-5218,1 55636U 23021J   23098.58334491 -.01133103  00000-0 -63519-1 0  9991,2 55636  70.0031  12.7070 0003098 265.0844 331.5684 15.16146434  1303,6895.637,94.978,519.639,515.366,0.0
